start=new Date('2022-03-16T00:00:00.000Z').valueOf();
sats=[{"PERIAPSIS":"544.564","MEAN_ELEMENT_THEORY":"SGP4","EPOCH":"2022-03-15T11:51:14.071968","COUNTRY_CODE":"US","MEAN_MOTION_DDOT":"0.0000000000000","REV_AT_EPOCH":"11544","NORAD_CAT_ID":"45178","MEAN_MOTION":"15.06799558","GP_ID":"198845788","REF_FRAME":"TEME","ECCENTRICITY":"0.00020580","RCS_SIZE":"LARGE","LAUNCH_DATE":"2020-02-17","BSTAR":"0.00353700000000","CLASSIFICATION_TYPE":"U","INCLINATION":"53.0565","TIME_SYSTEM":"UTC","OBJECT_TYPE":"PAYLOAD","MEAN_MOTION_DOT":"0.00053378","APOAPSIS":"547.414","CENTER_NAME":"EARTH","OBJECT_ID":"2020-012A","TLE_LINE1":"1 45178U 20012A   22074.49391287  .00053378  00000-0  35370-2 0  9994","ELEMENT_SET_NO":"999","EPHEMERIS_TYPE":"0","FILE":"3360930","OBJECT_NAME":"STARLINK-1138","SITE":"AFETR","TLE_LINE2":"2 45178  53.0565  99.2354 0002058  32.5344 327.5771 15.06799558115441","PERIOD":"95.567","ARG_OF_PERICENTER":"32.5344","RA_OF_ASC_NODE":"99.2354","MEAN_ANOMALY":"327.5771","SEMIMAJOR_AXIS":"6924.124","DECAY_DATE":null},{"DECAY_DATE":null,"SEMIMAJOR_AXIS":"6925.351","MEAN_ANOMALY":"300.1541","RA_OF_ASC_NODE":"98.0318","ARG_OF_PERICENTER":"59.9630","SITE":"AFETR","PERIOD":"95.592","TLE_LINE2":"2 45179  53.0521  98.0318 0001835  59.9630 300.1541 15.06399305115543","ELEMENT_SET_NO":"999","FILE":"3360930","EPHEMERIS_TYPE":"0","OBJECT_NAME":"STARLINK-1143","TLE_LINE1":"1 45179U 20012B   22074.76335354  .00001807  00000-0  14016-3 0  9993","OBJECT_ID":"2020-012B","CENTER_NAME":"EARTH","APOAPSIS":"548.486","MEAN_MOTION_DOT":"0.00001807","TIME_SYSTEM":"UTC","OBJECT_TYPE":"PAYLOAD","INCLINATION":"53.0521","CLASSIFICATION_TYPE":"U","LAUNCH_DATE":"2020-02-17","BSTAR":"0.00014016000000","REF_FRAME":"TEME","GP_ID":"198845538","MEAN_MOTION":"15.06399305","RCS_SIZE":"LARGE","ECCENTRICITY":"0.00018350","NORAD_CAT_ID":"45179","REV_AT_EPOCH":"11554","MEAN_MOTION_DDOT":"0.0000000000000","COUNTRY_CODE":"US","PERIAPSIS":"545.945","MEAN_ELEMENT_THEORY":"SGP4","EPOCH":"2022-03-15T18:19:13.745856"},{"INCLINATION":"53.0530","OBJECT_TYPE":"PAYLOAD","TIME_SYSTEM":"UTC","CLASSIFICATION_TYPE":"U","RCS_SIZE":"LARGE","ECCENTRICITY":"0.00022670","GP_ID":"198844289","MEAN_MOTION":"15.06887518","REF_FRAME":"TEME","BSTAR":"0.00078765000000","LAUNCH_DATE":"2020-02-17","REV_AT_EPOCH":"11554","NORAD_CAT_ID":"45180","COUNTRY_CODE":"US","MEAN_MOTION_DDOT":"0.0000000000000","EPOCH":"2022-03-15T18:02:42.204768","PERIAPSIS":"544.150","MEAN_ELEMENT_THEORY":"SGP4","DECAY_DATE":null,"SEMIMAJOR_AXIS":"6923.855","RA_OF_ASC_NODE":"98.0469","MEAN_ANOMALY":"287.4474","ARG_OF_PERICENTER":"72.6763","FILE":"3360930","OBJECT_NAME":"STARLINK-1192","EPHEMERIS_TYPE":"0","ELEMENT_SET_NO":"999","TLE_LINE2":"2 45180  53.0530  98.0469 0002267  72.6763 287.4474 15.06887518115541","PERIOD":"95.561","SITE":"AFETR","TLE_LINE1":"1 45180U 20012C   22074.75187737  .00011625  00000-0  78765-3 0  9994","CENTER_NAME":"EARTH","OBJECT_ID":"2020-012C","MEAN_MOTION_DOT":"0.00011625","APOAPSIS":"547.289"},{"INCLINATION":"53.0562","OBJECT_TYPE":"PAYLOAD","TIME_SYSTEM":"UTC","CLASSIFICATION_TYPE":"U","ECCENTRICITY":"0.00016490","RCS_SIZE":"LARGE","MEAN_MOTION":"15.06401410","GP_ID":"198844539","REF_FRAME":"TEME","BSTAR":"0.00018931000000","LAUNCH_DATE":"2020-02-17","REV_AT_EPOCH":"11551","NORAD_CAT_ID":"45181","COUNTRY_CODE":"US","MEAN_MOTION_DDOT":"0.0000000000000","EPOCH":"2022-03-15T13:11:21.144192","MEAN_ELEMENT_THEORY":"SGP4","PERIAPSIS":"546.067","DECAY_DATE":null,"SEMIMAJOR_AXIS":"6925.344","RA_OF_ASC_NODE":"98.9892","MEAN_ANOMALY":"308.6309","ARG_OF_PERICENTER":"51.4828","OBJECT_NAME":"STARLINK-1200","FILE":"3360930","EPHEMERIS_TYPE":"0","ELEMENT_SET_NO":"999","TLE_LINE2":"2 45181  53.0562  98.9892 0001649  51.4828 308.6309 15.06401410115519","PERIOD":"95.592","SITE":"AFETR","TLE_LINE1":"1 45181U 20012D   22074.54955028  .00002539  00000-0  18931-3 0  9991","CENTER_NAME":"EARTH","OBJECT_ID":"2020-012D","MEAN_MOTION_DOT":"0.00002539","APOAPSIS":"548.351"},{"CLASSIFICATION_TYPE":"U","INCLINATION":"53.0554","OBJECT_TYPE":"PAYLOAD","TIME_SYSTEM":"UTC","COUNTRY_CODE":"US","MEAN_MOTION_DDOT":"0.0000000000000","EPOCH":"2022-03-15T16:51:38.267136","MEAN_ELEMENT_THEORY":"SGP4","PERIAPSIS":"546.058","ECCENTRICITY":"0.00017410","RCS_SIZE":"LARGE","REF_FRAME":"TEME","GP_ID":"198817821","MEAN_MOTION":"15.06383755","BSTAR":"-0.00016394000000","LAUNCH_DATE":"2020-02-17","REV_AT_EPOCH":"11517","NORAD_CAT_ID":"45182","RA_OF_ASC_NODE":"78.3224","MEAN_ANOMALY":"306.2596","ARG_OF_PERICENTER":"53.8554","DECAY_DATE":null,"SEMIMAJOR_AXIS":"6925.398","CENTER_NAME":"EARTH","OBJECT_ID":"2020-012E","MEAN_MOTION_DOT":"-0.00002722","APOAPSIS":"548.469","EPHEMERIS_TYPE":"0","FILE":"3360592","OBJECT_NAME":"STARLINK-1201","ELEMENT_SET_NO":"999","PERIOD":"95.593","TLE_LINE2":"2 45182  53.0554  78.3224 0001741  53.8554 306.2596 15.06383755115172","SITE":"AFETR","TLE_LINE1":"1 45182U 20012E   22074.70252624 -.00002722  00000-0 -16394-3 0  9999"},{"EPOCH":"2022-03-15T18:51:02.867040","MEAN_ELEMENT_THEORY":"SGP4","PERIAPSIS":"546.052","MEAN_MOTION_DDOT":"0.0000000000000","COUNTRY_CODE":"US","NORAD_CAT_ID":"45183","REV_AT_EPOCH":"11489","BSTAR":"0.00015162000000","LAUNCH_DATE":"2020-02-17","ECCENTRICITY":"0.00016860","RCS_SIZE":"LARGE","GP_ID":"198817355","MEAN_MOTION":"15.06397920","REF_FRAME":"TEME","CLASSIFICATION_TYPE":"U","OBJECT_TYPE":"PAYLOAD","TIME_SYSTEM":"UTC","INCLINATION":"53.0538","APOAPSIS":"548.388","MEAN_MOTION_DOT":"0.00001977","OBJECT_ID":"2020-012F","CENTER_NAME":"EARTH","TLE_LINE1":"1 45183U 20012F   22074.78544985  .00001977  00000-0  15162-3 0  9993","TLE_LINE2":"2 45183  53.0538  97.9374 0001686  58.5464 301.5690 15.06397920114898","PERIOD":"95.592","SITE":"AFETR","OBJECT_NAME":"STARLINK-1202","FILE":"3360594","EPHEMERIS_TYPE":"0","ELEMENT_SET_NO":"999","ARG_OF_PERICENTER":"58.5464","MEAN_ANOMALY":"301.5690","RA_OF_ASC_NODE":"97.9374","SEMIMAJOR_AXIS":"6925.355","DECAY_DATE":null},{"CLASSIFICATION_TYPE":"U","INCLINATION":"53.0548","TIME_SYSTEM":"UTC","OBJECT_TYPE":"PAYLOAD","COUNTRY_CODE":"US","MEAN_MOTION_DDOT":"0.0000000000000","PERIAPSIS":"546.098","MEAN_ELEMENT_THEORY":"SGP4","EPOCH":"2022-03-15T17:02:13.916256","MEAN_MOTION":"15.06395768","GP_ID":"198811086","REF_FRAME":"TEME","RCS_SIZE":"LARGE","ECCENTRICITY":"0.00016290","LAUNCH_DATE":"2020-02-17","BSTAR":"-0.00014148000000","REV_AT_EPOCH":"11514","NORAD_CAT_ID":"45184","RA_OF_ASC_NODE":"78.2679","MEAN_ANOMALY":"311.3483","ARG_OF_PERICENTER":"48.7646","DECAY_DATE":null,"SEMIMAJOR_AXIS":"6925.362","CENTER_NAME":"EARTH","OBJECT_ID":"2020-012G","MEAN_MOTION_DOT":"-0.00002388","APOAPSIS":"548.355","ELEMENT_SET_NO":"999","FILE":"3360334","OBJECT_NAME":"STARLINK-1205","EPHEMERIS_TYPE":"0","SITE":"AFETR","PERIOD":"95.592","TLE_LINE2":"2 45184  53.0548  78.2679 0001629  48.7646 311.3483 15.06395768115146","TLE_LINE1":"1 45184U 20012G   22074.70988329 -.00002388  00000-0 -14148-3 0  9992"},{"TLE_LINE1":"1 45185U 20012H   22074.77808644  .00002074  00000-0  15813-3 0  9991","TLE_LINE2":"2 45185  53.0544  97.9683 0001573  68.2535 291.8621 15.06395211115495","PERIOD":"95.592","SITE":"AFETR","FILE":"3360930","OBJECT_NAME":"STARLINK-1216","EPHEMERIS_TYPE":"0","ELEMENT_SET_NO":"999","APOAPSIS":"548.318","MEAN_MOTION_DOT":"0.00002074","OBJECT_ID":"2020-012H","CENTER_NAME":"EARTH","SEMIMAJOR_AXIS":"6925.363","DECAY_DATE":null,"ARG_OF_PERICENTER":"68.2535","MEAN_ANOMALY":"291.8621","RA_OF_ASC_NODE":"97.9683","NORAD_CAT_ID":"45185","REV_AT_EPOCH":"11549","BSTAR":"0.00015813000000","LAUNCH_DATE":"2020-02-17","RCS_SIZE":"LARGE","ECCENTRICITY":"0.00015730","GP_ID":"198845039","MEAN_MOTION":"15.06395211","REF_FRAME":"TEME","EPOCH":"2022-03-15T18:40:26.668416","MEAN_ELEMENT_THEORY":"SGP4","PERIAPSIS":"546.139","MEAN_MOTION_DDOT":"0.0000000000000","COUNTRY_CODE":"US","OBJECT_TYPE":"PAYLOAD","TIME_SYSTEM":"UTC","INCLINATION":"53.0544","CLASSIFICATION_TYPE":"U"},{"SEMIMAJOR_AXIS":"6925.358","DECAY_DATE":null,"ARG_OF_PERICENTER":"56.6756","MEAN_ANOMALY":"303.4414","RA_OF_ASC_NODE":"97.9036","TLE_LINE1":"1 45186U 20012J   22074.79282459  .00002338  00000-0  17582-3 0  9992","PERIOD":"95.592","TLE_LINE2":"2 45186  53.0538  97.9036 0001893  56.6756 303.4414 15.06397060114901","SITE":"AFETR","FILE":"3360600","OBJECT_NAME":"STARLINK-1224","EPHEMERIS_TYPE":"0","ELEMENT_SET_NO":"999","APOAPSIS":"548.534","MEAN_MOTION_DOT":"0.00002338","OBJECT_ID":"2020-012J","CENTER_NAME":"EARTH","OBJECT_TYPE":"PAYLOAD","TIME_SYSTEM":"UTC","INCLINATION":"53.0538","CLASSIFICATION_TYPE":"U","NORAD_CAT_ID":"45186","REV_AT_EPOCH":"11490","BSTAR":"0.00017582000000","LAUNCH_DATE":"2020-02-17","RCS_SIZE":"LARGE","ECCENTRICITY":"0.00018930","GP_ID":"198817468","MEAN_MOTION":"15.06397060","REF_FRAME":"TEME","EPOCH":"2022-03-15T19:01:40.044576","MEAN_ELEMENT_THEORY":"SGP4","PERIAPSIS":"545.912","MEAN_MOTION_DDOT":"0.0000000000000","COUNTRY_CODE":"US"},{"ECCENTRICITY":"0.00017700","RCS_SIZE":"LARGE","MEAN_MOTION":"15.06393428","GP_ID":"198845539","REF_FRAME":"TEME","BSTAR":"0.00010681000000","LAUNCH_DATE":"2020-02-17","REV_AT_EPOCH":"11555","NORAD_CAT_ID":"45187","COUNTRY_CODE":"US","MEAN_MOTION_DDOT":"0.0000000000000","EPOCH":"2022-03-15T20:42:30.721248","PERIAPSIS":"546.008","MEAN_ELEMENT_THEORY":"SGP4","INCLINATION":"53.0556","OBJECT_TYPE":"PAYLOAD","TIME_SYSTEM":"UTC","CLASSIFICATION_TYPE":"U","FILE":"3360930","OBJECT_NAME":"STARLINK-1225","EPHEMERIS_TYPE":"0","ELEMENT_SET_NO":"999","PERIOD":"95.593","TLE_LINE2":"2 45187  53.0556  97.5826 0001770  54.9877 305.1278 15.06393428115557","SITE":"AFETR","TLE_LINE1":"1 45187U 20012K   22074.86285557  .00001309  00000-0  10681-3 0  9993","CENTER_NAME":"EARTH","OBJECT_ID":"2020-012K","MEAN_MOTION_DOT":"0.00001309","APOAPSIS":"548.459","DECAY_DATE":null,"SEMIMAJOR_AXIS":"6925.369","RA_OF_ASC_NODE":"97.5826","MEAN_ANOMALY":"305.1278","ARG_OF_PERICENTER":"54.9877"}];
